{
  "links" : {
    "next" : "https://api.nasa.gov/neo/rest/v1/neo/browse?page=16&size=20&api_key=jqAGvNAwUIBu4fl9FSOjdm3V4F7hIglRzI6pdX9d",
    "prev" : "https://api.nasa.gov/neo/rest/v1/neo/browse?page=14&size=20&api_key=jqAGvNAwUIBu4fl9FSOjdm3V4F7hIglRzI6pdX9d",
    "self" : "https://api.nasa.gov/neo/rest/v1/neo/browse?page=15&size=20&api_key=jqAGvNAwUIBu4fl9FSOjdm3V4F7hIglRzI6pdX9d"
  },
  "page" : {
    "size" : 20,
    "total_elements" : 20750,
    "total_pages" : 1038,
    "number" : 15
  },
  "near_earth_objects" : [ {
    "links" : {
      "self" : "https://api.nasa.gov/neo/rest/v1/neo/3183837?api_key=jqAGvNAwUIBu4fl9FSOjdm3V4F7hIglRzI6pdX9d"
    },
    "neo_reference_id" : "3183837",
    "name" : "(2004 LG)",
    "nasa_jpl_url" : "http://ssd.jpl.nasa.gov/sbdb.cgi?sstr=3183837",
    "absolute_magnitude_h" : 18.0,
    "estimated_diameter" : {
      "kilometers" : {
        "estimated_diameter_min" : 0.6676594135,
        "estimated_diameter_max" : 1.4929318344
      },
      "meters" : {
        "estimated_diameter_min" : 667.6594134952,
        "estimated_diameter_max" : 1492.931834393
      },
      "miles" : {
        "estimated_diameter_min" : 0.4148641974,
        "estimated_diameter_max" : 0.9276645469
      },
      "feet" : {
        "estimated_diameter_min" : 2190.4837101717,
        "estimated_diameter_max" : 4898.07047955
      }
    },
    "is_potentially_hazardous_asteroid" : false,
    "close_approach_data" : [ {
      "close_approach_date" : "1939-03-11",
      "epoch_date_close_approach" : -972316800000,
      "relative_velocity" : {
        "kilometers_per_second" : "94.5713424476",
        "kilometers_per_hour" : "340456.8328111912",
        "miles_per_hour" : "211546.6359209316"
      },
      "miss_distance" : {
        "astronomical" : "0.0984209109",
        "lunar" : "38.285736084",
        "kilometers" : "14723559",
        "miles" : "9148795"
      },
      "orbiting_body" : "Merc"
    }, {
      "close_approach_date" : "2096-06-17",
      "epoch_date_close_approach" : 3990754800000,
      "relative_velocity" : {
        "kilometers_per_second" : "94.6901696436",
        "kilometers_per_hour" : "340884.6107170828",
        "miles_per_hour" : "211812.4404758452"
      },
      "miss_distance" : {
        "astronomical" : "0.0875074083",
        "lunar" : "34.0403823853",
        "kilometers" : "13090923",
        "miles" : "8134322"
      },
      "orbiting_body" : "Merc"
    }, {
      "close_approach_date" : "2199-10-16",
      "epoch_date_close_approach" : 7251490800000,
      "relative_velocity" : {
        "kilometers_per_second" : "93.6505168133",
        "kilometers_per_hour" : "337141.8605280506",
        "miles_per_hour" : "209486.8410597768"
      },
      "miss_distance" : {
        "astronomical" : "0.0754960522",
        "lunar" : "29.3679656982",
        "kilometers" : "11294049",
        "miles" : "7017797"
      },
      "orbiting_body" : "Merc"
    } ],
    "orbital_data" : {
      "orbit_id" : "34",
      "orbit_determination_date" : "2016-05-18 06:16:37",
      "first_observation_date" : null,
      "last_observation_date" : null,
      "data_arc_in_days" : null,
      "observations_used" : null,
      "orbit_uncertainty" : "0",
      "minimum_orbit_intersection" : ".515575",
      "jupiter_tisserand_invariant" : "2.700",
      "epoch_osculation" : "2457600.5",
      "eccentricity" : ".8970861331038638",
      "semi_major_axis" : "2.066121968415203",
      "inclination" : "70.93002482277524",
      "ascending_node_longitude" : "256.8896349113421",
      "orbital_period" : "1084.756746973943",
      "perihelion_distance" : ".2126326012486653",
      "perihelion_argument" : "164.6742015102942",
      "aphelion_distance" : "3.919611335581742",
      "perihelion_time" : "2457576.020538978170",
      "mean_anomaly" : "8.124038861655176",
      "mean_motion" : ".3318716394290816",
      "equinox" : "J2000",
      "orbit_class" : null
    },
    "is_sentry_object" : false
  }, {
    "links" : {
      "self" : "https://api.nasa.gov/neo/rest/v1/neo/3183851?api_key=jqAGvNAwUIBu4fl9FSOjdm3V4F7hIglRzI6pdX9d"
    },
    "neo_reference_id" : "3183851",
    "name" : "(2004 LY5)",
    "designation" : "2004 LY5",
    "nasa_jpl_url" : "http://ssd.jpl.nasa.gov/sbdb.cgi?sstr=3183851",
    "absolute_magnitude_h" : 21.5,
    "estimated_diameter" : {
      "kilometers" : {
        "estimated_diameter_min" : 0.1332155667,
        "estimated_diameter_max" : 0.2978790628
      },
      "meters" : {
        "estimated_diameter_min" : 133.2155666981,
        "estimated_diameter_max" : 297.8790627982
      },
      "miles" : {
        "estimated_diameter_min" : 0.0827762899,
        "estimated_diameter_max" : 0.1850934111
      },
      "feet" : {
        "estimated_diameter_min" : 437.0589598459,
        "estimated_diameter_max" : 977.2935443908
      }
    },
    "is_potentially_hazardous_asteroid" : true,
    "close_approach_data" : [ {
      "close_approach_date" : "2004-06-18",
      "epoch_date_close_approach" : 1087542000000,
      "relative_velocity" : {
        "kilometers_per_second" : "28.9106139161",
        "kilometers_per_hour" : "104078.210097969",
        "miles_per_hour" : "64670.1522689297"
      },
      "miss_distance" : {
        "astronomical" : "0.0651391572",
        "lunar" : "25.339132309",
        "kilometers" : "9744680",
        "miles" : "6055063"
      },
      "orbiting_body" : "Earth"
    } ],
    "orbital_data" : {
      "orbit_id" : "9",
      "orbit_determination_date" : "2017-04-06 09:12:39",
      "first_observation_date" : "2004-06-12",
      "last_observation_date" : "2004-06-15",
      "data_arc_in_days" : 3,
      "observations_used" : 39,
      "orbit_uncertainty" : "9",
      "minimum_orbit_intersection" : ".013771",
      "jupiter_tisserand_invariant" : "3.501",
      "epoch_osculation" : "2453170.5",
      "eccentricity" : ".7840355285057927",
      "semi_major_axis" : "1.867657367747497",
      "inclination" : "16.11589878987927",
      "ascending_node_longitude" : "87.59135696889916",
      "orbital_period" : "932.2754223294223",
      "perihelion_distance" : ".4033476363578504",
      "perihelion_argument" : "294.7567050947216",
      "aphelion_distance" : "3.331967099137143",
      "perihelion_time" : "2453220.536398570924",
      "mean_anomaly" : "340.6783456325338",
      "mean_motion" : ".3861519797448794",
      "equinox" : "J2000",
      "orbit_class" : {
        "orbit_class_type" : "APO",
        "orbit_class_range" : "a (semi-major axis) > 1.0 AU; q (perihelion) < 1.017 AU",
        "orbit_class_description" : "Near-Earth asteroid orbits which cross the Earth’s orbit similar to that of 1862 Apollo"
      }
    },
    "is_sentry_object" : false
  } ]
}